1 37673U 11024A   13348.13279944  .00000859  00000-0  14377-3 0  9999
2 37673 098.0117 352.9954 0001621 094.7434 307.0455 14.72304605135007
